{"type": "FeatureCollection", "features": [ {"type": "Feature", "properties": {"norad_id": 30306, "name": "FENGYUN 1C DEB", "group": "fengyun-1c-debris", "lat": 23.5059224019014, "lon": -137.84662025473045, "alt_km": 876.8258287026856, "timestamp": "2025-12-23T11:34:48.439133+00:00", "meta": {"OBJECT_NAME": "FENGYUN 1C DEB", "OBJECT_ID": "1999-025ZT", "EPOCH": "2025-12-21T08:24:26.991360", "MEAN_MOTION": 14.28243189, "ECCENTRICITY": 0.01130333, "INCLINATION": 98.5861, "RA_OF_ASC_NODE": 36.2884, "ARG_OF_PERICENTER": 332.0713, "MEAN_ANOMALY": 27.443, "EPHEMERIS_TYPE": 0, "CLASSIFICATION_TYPE": "U", "NORAD_CAT_ID": 30306, "ELEMENT_SET_NO": 999, "REV_AT_EPOCH": 97804, "BSTAR": 0.00076128497, "MEAN_MOTION_DOT": 1.988e-05, "MEAN_MOTION_DDOT": 0}, "tle": {"line1": "1 30306U 99025ZT  25355.35031240  .00001988  00000+0  76128-3 0  9997", "line2": "2 30306  98.5861  36.2884 0113033 332.0713  27.4430 14.28243189978042"}}, "geometry": {"type": "Point", "coordinates": [-137.84662025473045, 23.5059224019014]}}, {"type": "Feature", "properties": {"norad_id": 30309, "name": "FENGYUN 1C DEB", "group": "fengyun-1c-debris", "lat": 19.389883880447673, "lon": -122.10138918201224, "alt_km": 848.0074519285381, "timestamp": "2025-12-23T11:34:48.439142+00:00", "meta": {"OBJECT_NAME": "FENGYUN 1C DEB", "OBJECT_ID": "1999-025ZW", "EPOCH": "2025-12-22T21:01:45.856416", "MEAN_MOTION": 13.93527458, "ECCENTRICITY": 0.0093749, "INCLINATION": 99.2246, "RA_OF_ASC_NODE": 54.0152, "ARG_OF_PERICENTER": 164.432, "MEAN_ANOMALY": 195.9758, "EPHEMERIS_TYPE": 0, "CLASSIFICATION_TYPE": "U", "NORAD_CAT_ID": 30309, "ELEMENT_SET_NO": 999, "REV_AT_EPOCH": 96174, "BSTAR": 0.0004212, "MEAN_MOTION_DOT": 5.28e-06, "MEAN_MOTION_DDOT": 0}, "tle": {"line1": "1 30309U 99025ZW  25356.87622519  .00000528  00000+0  42120-3 0  9997", "line2": "2 30309  99.2246  54.0152 0093749 164.4320 195.9758 13.93527458961746"}}, "geometry": {"type": "Point", "coordinates": [-122.10138918201224, 19.389883880447673]}}, {"type": "Feature", "properties": {"norad_id": 30310, "name": "FENGYUN 1C DEB", "group": "fengyun-1c-debris", "lat": -65.79628816657757, "lon": 36.53610053515737, "alt_km": 726.7376317842309, "timestamp": "2025-12-23T11:34:48.439151+00:00", "meta": {"OBJECT_NAME": "FENGYUN 1C DEB", "OBJECT_ID": "1999-025ZX", "EPOCH": "2025-12-22T18:50:07.428480", "MEAN_MOTION": 14.08413171, "ECCENTRICITY": 0.02404963, "INCLINATION": 98.6639, "RA_OF_ASC_NODE": 16.0366, "ARG_OF_PERICENTER": 328.9877, "MEAN_ANOMALY": 29.7278, "EPHEMERIS_TYPE": 0, "CLASSIFICATION_TYPE": "U", "NORAD_CAT_ID": 30310, "ELEMENT_SET_NO": 999, "REV_AT_EPOCH": 96873, "BSTAR": 0.00055801453, "MEAN_MOTION_DOT": 1.202e-05, "MEAN_MOTION_DDOT": 0}, "tle": {"line1": "1 30310U 99025ZX  25356.78480820  .00001202  00000+0  55801-3 0  9996", "line2": "2 30310  98.6639  16.0366 0240496 328.9877  29.7278 14.08413171968739"}}, "geometry": {"type": "Point", "coordinates": [36.53610053515737, -65.79628816657757]}}, {"type": "Feature", "properties": {"norad_id": 30311, "name": "FENGYUN 1C DEB", "group": "fengyun-1c-debris", "lat": 34.14376835613214, "lon": 86.5063895443407, "alt_km": 1052.3431517113977, "timestamp": "2025-12-23T11:34:48.439160+00:00", "meta": {"OBJECT_NAME": "FENGYUN 1C DEB", "OBJECT_ID": "1999-025ZY", "EPOCH": "2025-12-22T19:43:22.760544", "MEAN_MOTION": 13.77897552, "ECCENTRICITY": 0.01656054, "INCLINATION": 99.1392, "RA_OF_ASC_NODE": 92.1376, "ARG_OF_PERICENTER": 170.3454, "MEAN_ANOMALY": 190.0947, "EPHEMERIS_TYPE": 0, "CLASSIFICATION_TYPE": "U", "NORAD_CAT_ID": 30311, "ELEMENT_SET_NO": 999, "REV_AT_EPOCH": 95099, "BSTAR": 0.00034584706, "MEAN_MOTION_DOT": 3.42e-06, "MEAN_MOTION_DDOT": 0}, "tle": {"line1": "1 30311U 99025ZY  25356.82179121  .00000342  00000+0  34585-3 0  9991", "line2": "2 30311  99.1392  92.1376 0165605 170.3454 190.0947 13.77897552950994"}}, "geometry": {"type": "Point", "coordinates": [86.5063895443407, 34.14376835613214]}}, {"type": "Feature", "properties": {"norad_id": 30312, "name": "FENGYUN 1C DEB", "group": "fengyun-1c-debris", "lat": -57.460014910262196, "lon": -116.92068027430268, "alt_km": 741.2847303670387, "timestamp": "2025-12-23T11:34:48.439170+00:00", "meta": {"OBJECT_NAME": "FENGYUN 1C DEB", "OBJECT_ID": "1999-025ZZ", "EPOCH": "2025-12-23T04:08:32.881056", "MEAN_MOTION": 14.45991202, "ECCENTRICITY": 0.0012266, "INCLINATION": 98.8649, "RA_OF_ASC_NODE": 76.914, "ARG_OF_PERICENTER": 180.5961, "MEAN_ANOMALY": 245.4862, "EPHEMERIS_TYPE": 0, "CLASSIFICATION_TYPE": "U", "NORAD_CAT_ID": 30312, "ELEMENT_SET_NO": 999, "REV_AT_EPOCH": 98071, "BSTAR": 0.0025558, "MEAN_MOTION_DOT": 9.074e-05, "MEAN_MOTION_DDOT": 0}, "tle": {"line1": "1 30312U 99025ZZ  25357.17260279  .00009074  00000+0  25558-2 0  9996", "line2": "2 30312  98.8649  76.9140 0012266 180.5961 245.4862 14.45991202980712"}}, "geometry": {"type": "Point", "coordinates": [-116.92068027430268, -57.460014910262196]}}, {"type": "Feature", "properties": {"norad_id": 30313, "name": "FENGYUN 1C DEB", "group": "fengyun-1c-debris", "lat": -71.4753596342855, "lon": -124.01427749902912, "alt_km": 787.7643175229978, "timestamp": "2025-12-23T11:34:48.439179+00:00", "meta": {"OBJECT_NAME": "FENGYUN 1C DEB", "OBJECT_ID": "1999-025AAA", "EPOCH": "2025-12-22T19:48:33.143904", "MEAN_MOTION": 14.2552633, "ECCENTRICITY": 0.00569615, "INCLINATION": 98.8749, "RA_OF_ASC_NODE": 83.1157, "ARG_OF_PERICENTER": 305.9872, "MEAN_ANOMALY": 177.771, "EPHEMERIS_TYPE": 0, "CLASSIFICATION_TYPE": "U", "NORAD_CAT_ID": 30313, "ELEMENT_SET_NO": 999, "REV_AT_EPOCH": 97233, "BSTAR": 0.0017592895, "MEAN_MOTION_DOT": 4.187e-05, "MEAN_MOTION_DDOT": 0}, "tle": {"line1": "1 30313U 99025AAA 25356.82538361  .00004187  00000+0  17593-2 0  9998", "line2": "2 30313  98.8749  83.1157 0056961 305.9872 177.7710 14.25526330972338"}}, "geometry": {"type": "Point", "coordinates": [-124.01427749902912, -71.4753596342855]}}, {"type": "Feature", "properties": {"norad_id": 30314, "name": "FENGYUN 1C DEB", "group": "fengyun-1c-debris", "lat": 59.285009209470516, "lon": 173.1146357462468, "alt_km": 887.6682225940749, "timestamp": "2025-12-23T11:34:48.439188+00:00", "meta": {"OBJECT_NAME": "FENGYUN 1C DEB", "OBJECT_ID": "1999-025AAB", "EPOCH": "2025-12-19T07:54:02.351232", "MEAN_MOTION": 14.0121396, "ECCENTRICITY": 0.0143407, "INCLINATION": 98.3834, "RA_OF_ASC_NODE": 183.6699, "ARG_OF_PERICENTER": 339.1457, "MEAN_ANOMALY": 20.3896, "EPHEMERIS_TYPE": 0, "CLASSIFICATION_TYPE": "U", "NORAD_CAT_ID": 30314, "ELEMENT_SET_NO": 999, "REV_AT_EPOCH": 96201, "BSTAR": 0.00090289, "MEAN_MOTION_DOT": 1.445e-05, "MEAN_MOTION_DDOT": 0}, "tle": {"line1": "1 30314U 99025AAB 25353.32919388  .00001445  00000+0  90289-3 0  9991", "line2": "2 30314  98.3834 183.6699 0143407 339.1457  20.3896 14.01213960962014"}}, "geometry": {"type": "Point", "coordinates": [173.1146357462468, 59.285009209470516]}}, {"type": "Feature", "properties": {"norad_id": 30315, "name": "FENGYUN 1C DEB", "group": "fengyun-1c-debris", "lat": -13.42836907842511, "lon": -175.3948557810364, "alt_km": 850.8035943837749, "timestamp": "2025-12-23T11:34:48.439197+00:00", "meta": {"OBJECT_NAME": "FENGYUN 1C DEB", "OBJECT_ID": "1999-025AAC", "EPOCH": "2025-12-22T23:06:08.246016", "MEAN_MOTION": 14.19078765, "ECCENTRICITY": 0.0034697, "INCLINATION": 98.6015, "RA_OF_ASC_NODE": 6.1716, "ARG_OF_PERICENTER": 330.6319, "MEAN_ANOMALY": 88.5594, "EPHEMERIS_TYPE": 0, "CLASSIFICATION_TYPE": "U", "NORAD_CAT_ID": 30315, "ELEMENT_SET_NO": 999, "REV_AT_EPOCH": 97852, "BSTAR": 0.0003124, "MEAN_MOTION_DOT": 6.14e-06, "MEAN_MOTION_DDOT": 0}, "tle": {"line1": "1 30315U 99025AAC 25356.96259544  .00000614  00000+0  31240-3 0  9995", "line2": "2 30315  98.6015   6.1716 0034697 330.6319  88.5594 14.19078765978526"}}, "geometry": {"type": "Point", "coordinates": [-175.3948557810364, -13.42836907842511]}}, {"type": "Feature", "properties": {"norad_id": 30316, "name": "FENGYUN 1C DEB", "group": "fengyun-1c-debris", "lat": -57.841592300780604, "lon": -93.72130178012029, "alt_km": 727.4933041816012, "timestamp": "2025-12-23T11:34:48.439206+00:00", "meta": {"OBJECT_NAME": "FENGYUN 1C DEB", "OBJECT_ID": "1999-025AAD", "EPOCH": "2025-12-22T19:38:38.321376", "MEAN_MOTION": 14.56229165, "ECCENTRICITY": 0.00352212, "INCLINATION": 98.6481, "RA_OF_ASC_NODE": 99.5994, "ARG_OF_PERICENTER": 8.2184, "MEAN_ANOMALY": 351.9582, "EPHEMERIS_TYPE": 0, "CLASSIFICATION_TYPE": "U", "NORAD_CAT_ID": 30316, "ELEMENT_SET_NO": 999, "REV_AT_EPOCH": 98483, "BSTAR": 0.002106565, "MEAN_MOTION_DOT": 9.353e-05, "MEAN_MOTION_DDOT": 0}, "tle": {"line1": "1 30316U 99025AAD 25356.81849909  .00009353  00000+0  21066-2 0  9993", "line2": "2 30316  98.6481  99.5994 0035221   8.2184 351.9582 14.56229165984838"}}, "geometry": {"type": "Point", "coordinates": [-93.72130178012029, -57.841592300780604]}}, {"type": "Feature", "properties": {"norad_id": 30317, "name": "FENGYUN 1C DEB", "group": "fengyun-1c-debris", "lat": 74.84608084897118, "lon": -37.17568237111661, "alt_km": 879.7702006825193, "timestamp": "2025-12-23T11:34:48.439215+00:00", "meta": {"OBJECT_NAME": "FENGYUN 1C DEB", "OBJECT_ID": "1999-025AAE", "EPOCH": "2025-12-22T11:18:59.282208", "MEAN_MOTION": 14.06953007, "ECCENTRICITY": 0.00241516, "INCLINATION": 98.7866, "RA_OF_ASC_NODE": 356.6677, "ARG_OF_PERICENTER": 248.2109, "MEAN_ANOMALY": 111.649, "EPHEMERIS_TYPE": 0, "CLASSIFICATION_TYPE": "U", "NORAD_CAT_ID": 30317, "ELEMENT_SET_NO": 999, "REV_AT_EPOCH": 97150, "BSTAR": 3.9549386e-05, "MEAN_MOTION_DOT": 2.3e-07, "MEAN_MOTION_DDOT": 0}, "tle": {"line1": "1 30317U 99025AAE 25356.47151947  .00000023  00000+0  39549-4 0  9996", "line2": "2 30317  98.7866 356.6677 0024151 248.2109 111.6490 14.06953007971508"}}, "geometry": {"type": "Point", "coordinates": [-37.17568237111661, 74.84608084897118]}}]}